NORAD_CAT_ID,OBJECT_NAME,OBJECT_TYPE,EPOCH,MEAN_MOTION,ECCENTRICITY,INCLINATION,RA_OF_ASC_NODE,ARG_OF_PERICENTER,MEAN_ANOMALY,BSTAR,MEAN_MOTION_DOT,MEAN_MOTION_DDOT,TLE_LINE0,TLE_LINE1,TLE_LINE2,SEMIMAJOR_AXIS,PERIOD,APOGEE,PERIGEE,DECAYED
53265.0,STARLINK-4097,PAYLOAD,2023-01-26 01:22:49,15.08854683,0.0001255,53.216,265.6313,100.2913,259.8221,0.00074472,0.00011589,0.0,0 STARLINK-4097,1 53265U 22086Z   23026.05751602  .00011589  00000-0  74472-3 0  9999,2 53265  53.2160 265.6313 0001255 100.2913 259.8221 15.08854683 29171,6917.835999999999,95.437,540.569,538.832,0.0
53265.0,STARLINK-4097,PAYLOAD,2023-01-26 22:02:50,15.08847276,0.0001196,53.216,261.7661,98.0914,262.0214,0.00020344,2.952e-05,0.0,0 STARLINK-4097,1 53265U 22086Z   23026.91863557  .00002952  00000-0  20344-3 0  9990,2 53265  53.2160 261.7661 0001196  98.0914 262.0214 15.08847276 29126,6917.858,95.437,540.5509999999999,538.896,0.0
53265.0,STARLINK-4097,PAYLOAD,2023-01-27 01:13:36,15.08849505,0.0001281999999999,53.2161,261.1713,98.5317,261.582,0.00020712,3.011e-05,0.0,0 STARLINK-4097,1 53265U 22086Z   23027.05111471  .00003011  00000-0  20712-3 0  9993,2 53265  53.2161 261.1713 0001282  98.5317 261.5820 15.08849505 29323,6917.851,95.437,540.6030000000001,538.8290000000001,0.0
53265.0,STARLINK-4097,PAYLOAD,2023-01-27 18:42:51,15.08841213,0.000144,53.2152,257.8979,103.5408,256.5745,4.1662e-05,3.75e-06,0.0,0 STARLINK-4097,1 53265U 22086Z   23027.77975740  .00000375  00000-0  41662-4 0  9997,2 53265  53.2152 257.8979 0001440 103.5408 256.5745 15.08841213 29253,6917.877,95.437,540.738,538.746,0.0
53265.0,STARLINK-4097,PAYLOAD,2023-01-27 21:53:37,15.0884047,0.0001179,53.2159,257.3074,92.4166,267.6961,4.391399999999999e-05,4.11e-06,0.0,0 STARLINK-4097,1 53265U 22086Z   23027.91223852  .00000411  00000-0  43914-4 0  9996,2 53265  53.2159 257.3074 0001179  92.4166 267.6961 15.08840470 29456,6917.879,95.438,540.56,538.928,0.0
53265.0,STARLINK-4097,PAYLOAD,2023-01-28 12:12:05,15.08835736,0.0001204,53.2157,254.6287,97.0506,263.0624,3.005e-05,1.9e-06,0.0,0 STARLINK-4097,1 53265U 22086Z   23028.50840064  .00000190  00000-0  30050-4 0  9993,2 53265  53.2157 254.6287 0001204  97.0506 263.0624 15.08835736 29543,6917.893,95.438,540.591,538.926,0.0
53265.0,STARLINK-4097,PAYLOAD,2023-01-28 18:33:38,15.08820139,0.0001291,53.2166,253.4399,103.1587,256.9549,0.00026251,3.89e-05,0.0,0 STARLINK-4097,1 53265U 22086Z   23028.77336419  .00003890  00000-0  26251-3 0  9993,2 53265  53.2166 253.4399 0001291 103.1587 256.9549 15.08820139 29401,6917.941,95.439,540.699,538.913,0.0
53265.0,STARLINK-4097,PAYLOAD,2023-01-28 21:44:24,15.08842232,0.0001221,53.2166,252.8458,92.4737,267.6395,1.1678e-05,-1.02e-06,0.0,0 STARLINK-4097,1 53265U 22086Z   23028.90583933 -.00000102  00000-0  11678-4 0  9995,2 53265  53.2166 252.8458 0001221  92.4737 267.6395 15.08842232 29608,6917.874,95.437,540.583,538.894,0.0
53265.0,STARLINK-4097,PAYLOAD,2023-01-29 00:55:10,15.08845441,0.0001249,53.2166,252.2511,90.7373,269.3762,-2.5758e-05,-6.98e-06,0.0,0 STARLINK-4097,1 53265U 22086Z   23029.03831814 -.00000698  00000-0 -25758-4 0  9999,2 53265  53.2166 252.2511 0001249  90.7373 269.3762 15.08845441 29443,6917.864,95.437,540.593,538.865,0.0
53265.0,STARLINK-4097,PAYLOAD,2023-01-29 15:13:39,15.0883566,0.0001195,53.2165,249.5747,89.5727,270.5402,5.1443e-05,5.31e-06,0.0,0 STARLINK-4097,1 53265U 22086Z   23029.63448381  .00000531  00000-0  51443-4 0  9992,2 53265  53.2165 249.5747 0001195  89.5727 270.5402 15.08835660 29538,6917.894,95.438,540.585,538.932,0.0
53265.0,STARLINK-4097,PAYLOAD,2023-01-29 21:35:11,15.08837715,0.0001182,53.2165,248.3852,94.8671,265.2456,8.6548e-05,1.09e-05,0.0,0 STARLINK-4097,1 53265U 22086Z   23029.89944171  .00001090  00000-0  86548-4 0  9993,2 53265  53.2165 248.3852 0001182  94.8671 265.2456 15.08837715 29752,6917.887,95.438,540.57,538.935,0.0
53265.0,STARLINK-4097,PAYLOAD,2023-01-30 00:45:57,15.08840266,0.000119,53.2165,247.7904,88.7505,271.3624,8.019e-05,9.89e-06,0.0,0 STARLINK-4097,1 53265U 22086Z   23030.03192036  .00000989  00000-0  80190-4 0  9999,2 53265  53.2165 247.7904 0001190  88.7505 271.3624 15.08840266 29772,6917.88,95.438,540.568,538.921,0.0
53265.0,STARLINK-4097,PAYLOAD,2023-01-30 21:25:58,15.08837508,0.0001185,53.2166,243.9244,92.704,267.4088,9.3566e-05,1.201e-05,0.0,0 STARLINK-4097,1 53265U 22086Z   23030.89304372  .00001201  00000-0  93566-4 0  9990,2 53265  53.2166 243.9244 0001185  92.7040 267.4088 15.08837508 29721,6917.888,95.438,540.573,538.933,0.0
53265.0,STARLINK-4097,PAYLOAD,2023-01-31 08:33:40,15.08841415,0.000114,53.2162,241.8429,88.346,271.7663,3.8343e-05,3.22e-06,0.0,0 STARLINK-4097,1 53265U 22086Z   23031.35672297  .00000322  00000-0  38343-4 0  9991,2 53265  53.2162 241.8429 0001140  88.3460 271.7663 15.08841415 29973,6917.876,95.437,540.53,538.952,0.0
53265.0,STARLINK-4097,PAYLOAD,2023-01-31 16:30:36,15.0884144,0.0001109,53.2162,240.3561,91.8914,268.2205,6.3781e-05,7.27e-06,0.0,0 STARLINK-4097,1 53265U 22086Z   23031.68792277  .00000727  00000-0  63781-4 0  9991,2 53265  53.2162 240.3561 0001109  91.8914 268.2205 15.08841440 30021,6917.876,95.437,540.508,538.974,0.0
53265.0,STARLINK-4097,PAYLOAD,2023-01-31 22:52:08,15.08845193,0.0001106,53.2162,239.1666,91.9536,268.1583,9.242e-05,1.184e-05,0.0,0 STARLINK-4097,1 53265U 22086Z   23031.95287929  .00001184  00000-0  92420-4 0  9994,2 53265  53.2162 239.1666 0001106  91.9536 268.1583 15.08845193 29880,6917.865,95.437,540.495,538.964,0.0
53265.0,STARLINK-4097,PAYLOAD,2023-02-01 19:32:10,15.08839011,0.0001666,53.2143,235.3017,89.2103,270.908,4.5955e-05,4.43e-06,0.0,0 STARLINK-4097,1 53265U 22086Z   23032.81400643  .00000443  00000-0  45955-4 0  9998,2 53265  53.2143 235.3017 0001666  89.2103 270.9080 15.08839011 30010,6917.883,95.438,540.901,538.596,0.0
53265.0,STARLINK-4097,PAYLOAD,2023-02-01 22:42:56,15.08838859,0.0001472,53.215,234.7054,97.3111,262.8048,-1.8129e-05,-5.76e-06,0.0,0 STARLINK-4097,1 53265U 22086Z   23032.94648782 -.00000576  00000-0 -18129-4 0  9992,2 53265  53.2150 234.7054 0001472  97.3111 262.8048 15.08838859 30211,6917.884,95.438,540.767,538.731,0.0
53265.0,STARLINK-4097,PAYLOAD,2023-02-02 22:33:43,15.08844508,0.000141,53.2151,230.2446,101.588,258.527,4.9785e-05,5.05e-06,0.0,0 STARLINK-4097,1 53265U 22086Z   23033.94008200  .00000505  00000-0  49785-4 0  9990,2 53265  53.2151 230.2446 0001410 101.5880 258.5270 15.08844508 30184,6917.867,95.437,540.707,538.756,0.0
53265.0,STARLINK-4097,PAYLOAD,2023-02-03 12:52:11,15.0884115,0.0001239,53.2155,227.569,94.5051,265.6082,7.9917e-05,9.84e-06,0.0,0 STARLINK-4097,1 53265U 22086Z   23034.53624345  .00000984  00000-0  79917-4 0  9991,2 53265  53.2155 227.5690 0001239  94.5051 265.6082 15.08841150 30458,6917.877,95.437,540.599,538.885,0.0
53265.0,STARLINK-4097,PAYLOAD,2023-02-04 19:04:30,15.08842323,0.0001211,53.2165,221.9192,92.685,267.4281,5.1009e-05,5.24e-06,0.0,0 STARLINK-4097,1 53265U 22086Z   23035.79480218  .00000524  00000-0  51009-4 0  9991,2 53265  53.2165 221.9192 0001211  92.6850 267.4281 15.08842323 30465,6917.873,95.437,540.576,538.901,0.0
53265.0,STARLINK-4097,PAYLOAD,2023-02-05 12:33:45,15.08837803,0.0001155,53.2168,218.6482,91.9284,268.1841,-3.5237e-06,-3.44e-06,0.0,0 STARLINK-4097,1 53265U 22086Z   23036.52344715 -.00000344  00000-0 -35237-5 0  9992,2 53265  53.2168 218.6482 0001155  91.9284 268.1841 15.08837803 30572,6917.887,95.438,540.551,538.953,0.0
53265.0,STARLINK-4097,PAYLOAD,2023-02-05 18:55:18,15.08839316,0.0001074,53.2172,217.459,89.8538,270.2577,-3.8348e-06,-3.49e-06,0.0,0 STARLINK-4097,1 53265U 22086Z   23036.78840601 -.00000349  00000-0 -38348-5 0  9996,2 53265  53.2172 217.4590 0001074  89.8538 270.2577 15.08839316 30797,6917.882,95.438,540.49,539.004,0.0
53265.0,STARLINK-4097,PAYLOAD,2023-02-06 04:27:37,15.0883675,0.0001067,53.2175,215.6746,88.581,271.5305,-6.8765e-06,-3.97e-06,0.0,0 STARLINK-4097,1 53265U 22086Z   23037.18584823 -.00000397  00000-0 -68765-5 0  9991,2 53265  53.2175 215.6746 0001067  88.5810 271.5305 15.08836750 30853,6917.89,95.438,540.493,539.017,0.0
53265.0,STARLINK-4097,PAYLOAD,2023-02-06 20:21:28,15.08842525,0.0001093,53.2178,212.702,91.017,269.0947,8.1495e-05,1.01e-05,0.0,0 STARLINK-4097,1 53265U 22086Z   23037.84824331  .00001010  00000-0  81495-4 0  9990,2 53265  53.2178 212.7020 0001093  91.0170 269.0947 15.08842525 30778,6917.873,95.437,540.494,538.982,0.0
53265.0,STARLINK-4097,PAYLOAD,2023-02-07 13:50:43,15.0883542,0.0001107,53.2179,209.4311,90.4699,269.642,4.7747e-05,4.72e-06,0.0,0 STARLINK-4097,1 53265U 22086Z   23038.57689024  .00000472  00000-0  47747-4 0  9992,2 53265  53.2179 209.4311 0001107  90.4699 269.6420 15.08835420 30880,6917.894,95.438,540.525,538.994,0.0
53265.0,STARLINK-4097,PAYLOAD,2023-02-07 20:12:15,15.08842996,0.0001099,53.218,208.2417,87.0727,273.0391,0.00010678,1.412e-05,0.0,0 STARLINK-4097,1 53265U 22086Z   23038.84184449  .00001412  00000-0  10678-3 0  9990,2 53265  53.2180 208.2417 0001099  87.0727 273.0391 15.08842996 30927,6917.871,95.437,540.497,538.976,0.0
53265.0,STARLINK-4097,PAYLOAD,2023-02-08 04:09:11,15.0883449,0.0001118,53.2181,206.7551,87.0877,273.0243,2.4515e-05,1.02e-06,0.0,0 STARLINK-4097,1 53265U 22086Z   23039.17305297  .00000102  00000-0  24515-4 0  9994,2 53265  53.2181 206.7551 0001118  87.0877 273.0243 15.08834490 30979,6917.897,95.438,540.536,538.989,0.0
53265.0,STARLINK-4097,PAYLOAD,2023-02-08 10:30:44,15.0883106,0.000122,53.2182,205.566,86.166,273.9471,2.8709e-05,1.69e-06,0.0,0 STARLINK-4097,1 53265U 22086Z   23039.43801687  .00000169  00000-0  28709-4 0  9999,2 53265  53.2182 205.5660 0001220  86.1660 273.9471 15.08831060 31199,6917.908,95.438,540.617,538.929,0.0
53265.0,STARLINK-4097,PAYLOAD,2023-02-08 20:03:02,15.08842618,0.0001259,53.2184,203.7822,88.4568,271.6568,5.1804e-05,5.37e-06,0.0,0 STARLINK-4097,1 53265U 22086Z   23039.83545066  .00000537  00000-0  51804-4 0  9990,2 53265  53.2184 203.7822 0001259  88.4568 271.6568 15.08842618 31255,6917.872,95.437,540.608,538.866,0.0
